NORAD_CAT_ID,OBJECT_NAME,OBJECT_TYPE,EPOCH,MEAN_MOTION,ECCENTRICITY,INCLINATION,RA_OF_ASC_NODE,ARG_OF_PERICENTER,MEAN_ANOMALY,BSTAR,MEAN_MOTION_DOT,MEAN_MOTION_DDOT,TLE_LINE0,TLE_LINE1,TLE_LINE2,SEMIMAJOR_AXIS,PERIOD,APOGEE,PERIGEE,DECAYED
49431.0,STARLINK-3153,PAYLOAD,2022-09-21 09:02:20,15.08837764,0.0001246,53.2175,149.3331,76.768,283.3451,-5.5218e-05,-1.166e-05,0.0,0 STARLINK-3153,1 49431U 21104Z   22264.37662997 -.00001166  00000-0 -55218-4 0  9995,2 49431  53.2175 149.3331 0001246  76.7680 283.3451 15.08837764 47610,6917.887,95.438,540.614,538.89,0.0
49431.0,STARLINK-3153,PAYLOAD,2022-09-22 08:53:07,15.08843456,0.0001699,53.2169,144.8733,73.0562,287.0616,6.0939e-05,6.82e-06,0.0,0 STARLINK-3153,1 49431U 21104Z   22265.37022589  .00000682  00000-0  60939-4 0  9999,2 49431  53.2169 144.8733 0001699  73.0562 287.0616 15.08843456 48845,6917.87,95.437,540.91,538.559,0.0
49431.0,STARLINK-3153,PAYLOAD,2022-09-22 20:00:49,15.08836574,0.0001463,53.2165,142.7911,71.016,289.0991,7.050199999999998e-07,-2.77e-06,0.0,0 STARLINK-3153,1 49431U 21104Z   22265.83391102 -.00000277  00000-0  70502-6 0  9990,2 49431  53.2165 142.7911 0001463  71.0160 289.0991 15.08836574 48916,6917.891,95.438,540.768,538.744,0.0
49431.0,STARLINK-3153,PAYLOAD,2022-09-22 21:36:13,15.08832569,0.0001908,53.2197,142.4894,57.2104,302.9072,4.4341e-05,4.17e-06,0.0,0 STARLINK-3153,1 49431U 21104Z   22265.90015242  .00000417  00000-0  44341-4 0  9991,2 49431  53.2197 142.4894 0001908  57.2104 302.9072 15.08832569 47842,6917.903,95.438,541.0880000000002,538.448,0.0
49431.0,STARLINK-3153,PAYLOAD,2022-09-22 23:11:36,15.08833624,0.0001927,53.2197,142.1919,55.5649,304.5525,4.8839e-05,4.89e-06,0.0,0 STARLINK-3153,1 49431U 21104Z   22265.96639197  .00000489  00000-0  48839-4 0  9993,2 49431  53.2197 142.1919 0001927  55.5649 304.5525 15.08833624 47858,6917.9,95.438,541.0980000000002,538.432,0.0
49431.0,STARLINK-3153,PAYLOAD,2022-09-23 21:27:00,15.08834921,0.0001501,53.2182,138.0327,65.3544,294.7604,6.817100000000001e-05,7.97e-06,0.0,0 STARLINK-3153,1 49431U 21104Z   22266.89375060  .00000797  00000-0  68171-4 0  9995,2 49431  53.2182 138.0327 0001501  65.3544 294.7604 15.08834921 47994,6917.896,95.438,540.799,538.7230000000002,0.0
49431.0,STARLINK-3153,PAYLOAD,2022-09-23 23:02:23,15.08834513,0.0001473,53.2183,137.7362,70.5448,289.5703,5.650100000000003e-05,6.11e-06,0.0,0 STARLINK-3153,1 49431U 21104Z   22266.95999151  .00000611  00000-0  56501-4 0  9994,2 49431  53.2183 137.7362 0001473  70.5448 289.5703 15.08834513 48001,6917.897,95.438,540.781,538.743,0.0
49431.0,STARLINK-3153,PAYLOAD,2022-09-24 19:42:23,15.08845083,0.0001367,53.218,133.8718,76.4645,283.65,0.00012184,1.652e-05,0.0,0 STARLINK-3153,1 49431U 21104Z   22267.82110310  .00001652  00000-0  12184-3 0  9997,2 49431  53.2180 133.8718 0001367  76.4645 283.6500 15.08845083 49214,6917.865,95.437,540.6759999999998,538.784,0.0
49431.0,STARLINK-3153,PAYLOAD,2022-09-25 08:25:28,15.08839811,0.0001220999999999,53.2172,131.4897,75.2835,284.8293,4.8808e-05,4.89e-06,0.0,0 STARLINK-3153,1 49431U 21104Z   22268.35102733  .00000489  00000-0  48808-4 0  9996,2 49431  53.2172 131.4897 0001221  75.2835 284.8293 15.08839811 48217,6917.880999999999,95.438,540.591,538.901,0.0
49431.0,STARLINK-3153,PAYLOAD,2022-09-25 19:33:10,15.08843291,0.0001498,53.2178,129.4101,61.2506,298.8636,0.00010716,1.418e-05,0.0,0 STARLINK-3153,1 49431U 21104Z   22268.81470340  .00001418  00000-0  10716-3 0  9998,2 49431  53.2178 129.4101 0001498  61.2506 298.8636 15.08843291 48284,6917.87,95.437,540.7719999999998,538.6990000000002,0.0
49431.0,STARLINK-3153,PAYLOAD,2022-09-26 08:16:15,15.08836489,0.0001276,53.2174,127.0328,75.0073,285.1061,1.0345e-05,-1.23e-06,0.0,0 STARLINK-3153,1 49431U 21104Z   22269.34462951 -.00000123  00000-0  10345-4 0  9998,2 49431  53.2174 127.0328 0001276  75.0073 285.1061 15.08836489 48362,6917.891,95.438,540.639,538.873,0.0
49431.0,STARLINK-3153,PAYLOAD,2022-09-26 20:59:20,15.08840507,0.0001319,53.217,124.6529,64.0476,296.0652,4.6344e-05,4.5e-06,0.0,0 STARLINK-3153,1 49431U 21104Z   22269.87454529  .00000450  00000-0  46344-4 0  9998,2 49431  53.2170 124.6529 0001319  64.0476 296.0652 15.08840507 49529,6917.879,95.438,540.656,538.831,0.0
49431.0,STARLINK-3153,PAYLOAD,2022-09-27 20:50:07,15.08858396,0.0001478,53.2164,120.1922,62.6002,297.514,-0.00024532,-4.192e-05,0.0,0 STARLINK-3153,1 49431U 21104Z   22270.86814011 -.00004192  00000-0 -24532-3 0  9998,2 49431  53.2164 120.1922 0001478  62.6002 297.5140 15.08858396 48594,6917.824000000001,95.436,540.712,538.6669999999998,0.0
49431.0,STARLINK-3153,PAYLOAD,2022-09-28 00:00:53,15.08839907,0.0001406999999999,53.2163,119.5966,66.3748,293.7392,8.5273e-05,1.069e-05,0.0,0 STARLINK-3153,1 49431U 21104Z   22271.00062483  .00001069  00000-0  85273-4 0  9991,2 49431  53.2163 119.5966 0001407  66.3748 293.7392 15.08839907 49699,6917.880999999999,95.438,540.719,538.7719999999998,0.0
49431.0,STARLINK-3153,PAYLOAD,2022-09-28 14:19:22,15.08838976,0.0001453,53.2138,116.9202,67.3429,292.7717,3.3815e-05,2.5e-06,0.0,0 STARLINK-3153,1 49431U 21104Z   22271.59678744  .00000250  00000-0  33815-4 0  9994,2 49431  53.2138 116.9202 0001453  67.3429 292.7717 15.08838976 48709,6917.884,95.438,540.754,538.743,0.0
49431.0,STARLINK-3153,PAYLOAD,2022-09-28 20:40:55,15.08836612,0.0001330999999999,53.2144,115.73,62.7604,297.3524,4.195e-05,3.8e-06,0.0,0 STARLINK-3153,1 49431U 21104Z   22271.86174884  .00000380  00000-0  41950-4 0  9993,2 49431  53.2144 115.7300 0001331  62.7604 297.3524 15.08836612 48747,6917.891,95.438,540.677,538.835,0.0
49431.0,STARLINK-3153,PAYLOAD,2022-09-28 23:51:41,15.08834276,0.0001348,53.216,115.1366,60.6887,299.4240000000001,0.00010065,1.314e-05,0.0,0 STARLINK-3153,1 49431U 21104Z   22271.99422881  .00001314  00000-0  10065-3 0  9990,2 49431  53.2160 115.1366 0001348  60.6887 299.4240 15.08834276 49843,6917.898,95.438,540.695,538.83,0.0
49431.0,STARLINK-3153,PAYLOAD,2022-09-29 14:10:09,15.08834889,0.0001784,53.2183,112.4604,80.7341,279.3853,1.4653e-05,-5.5e-07,0.0,0 STARLINK-3153,1 49431U 21104Z   22272.59039351 -.00000055  00000-0  14653-4 0  9993,2 49431  53.2183 112.4604 0001784  80.7341 279.3853 15.08834889 48852,6917.896,95.438,540.995,538.5269999999998,0.0
49431.0,STARLINK-3153,PAYLOAD,2022-09-30 06:04:01,15.08837667,0.0001664,53.2176,109.4865,74.3974,285.7201,3.7385e-05,3.07e-06,0.0,0 STARLINK-3153,1 49431U 21104Z   22273.25279314  .00000307  00000-0  37385-4 0  9998,2 49431  53.2176 109.4865 0001664  74.3974 285.7201 15.08837667 50035,6917.888000000001,95.438,540.904,538.601,0.0
49431.0,STARLINK-3153,PAYLOAD,2022-09-30 21:57:52,15.08844131,0.000145,53.2172,106.5125,71.6639,288.4511,9.4398e-05,1.215e-05,0.0,0 STARLINK-3153,1 49431U 21104Z   22273.91518760  .00001215  00000-0  94398-4 0  9998,2 49431  53.2172 106.5125 0001450  71.6639 288.4511 15.08844131 50138,6917.868,95.437,540.736,538.73,0.0
49431.0,STARLINK-3153,PAYLOAD,2022-10-01 13:51:44,15.08833857,0.0001402,53.2172,103.5385,72.0366,288.0779,0.00012511,1.703e-05,0.0,0 STARLINK-3153,1 49431U 21104Z   22274.57759464  .00001703  00000-0  12511-3 0  9997,2 49431  53.2172 103.5385 0001402  72.0366 288.0779 15.08833857 49157,6917.899,95.438,540.734,538.794,0.0
49431.0,STARLINK-3153,PAYLOAD,2022-10-01 20:13:16,15.08844599,0.0001441999999999,53.2171,102.3491,72.6218,287.4932,0.00015211,2.134e-05,0.0,0 STARLINK-3153,1 49431U 21104Z   22274.84254786  .00002134  00000-0  15211-3 0  9993,2 49431  53.2171 102.3491 0001442  72.6218 287.4932 15.08844599 49190,6917.866,95.437,540.729,538.734,0.0
49431.0,STARLINK-3153,PAYLOAD,2022-10-02 12:07:07,15.08840472,0.0001505,53.2168,99.3751,70.8096,289.3059,3.0899000000000004e-05,2.04e-06,0.0,0 STARLINK-3153,1 49431U 21104Z   22275.50495363  .00000204  00000-0  30899-4 0  9991,2 49431  53.2168  99.3751 0001505  70.8096 289.3059 15.08840472 50373,6917.879,95.438,540.785,538.703,0.0
49431.0,STARLINK-3153,PAYLOAD,2022-10-02 20:04:03,15.08840454,0.0001519,53.2173,97.8894,72.921,287.1949,9.4548e-05,1.217e-05,0.0,0 STARLINK-3153,1 49431U 21104Z   22275.83615122  .00001217  00000-0  94548-4 0  9990,2 49431  53.2173  97.8894 0001519  72.9210 287.1949 15.08840454 49345,6917.879,95.438,540.795,538.693,0.0
49431.0,STARLINK-3153,PAYLOAD,2022-10-03 11:57:53,15.08856514,0.000233,53.2176,94.9155,73.3366,286.7882,0.00018127,2.599e-05,0.0,0 STARLINK-3153,1 49431U 21104Z   22276.49854005  .00002599  00000-0  18127-3 0  9990,2 49431  53.2176  94.9155 0002330  73.3366 286.7882 15.08856514 50522,6917.83,95.437,541.307,538.0830000000002,0.0
49431.0,STARLINK-3153,PAYLOAD,2022-10-03 18:19:26,15.08858049,0.0002355999999999,53.2174,93.7258,74.0188,286.1064,0.00018601,2.675e-05,0.0,0 STARLINK-3153,1 49431U 21104Z   22276.76349699  .00002675  00000-0  18601-3 0  9990,2 49431  53.2174  93.7258 0002356  74.0188 286.1064 15.08858049 49483,6917.825,95.436,541.32,538.06,0.0
49431.0,STARLINK-3153,PAYLOAD,2022-10-03 21:30:12,15.08850418,0.0001274999999999,53.219,93.129,109.6928,250.4202,5.017100000000001e-05,5.11e-06,0.0,0 STARLINK-3153,1 49431U 21104Z   22276.89598127  .00000511  00000-0  50171-4 0  9992,2 49431  53.2190  93.1290 0001275 109.6928 250.4202 15.08850418 50580,6917.849,95.437,540.596,538.832,0.0
49431.0,STARLINK-3153,PAYLOAD,2022-10-04 11:48:41,15.08839663,0.0001505,53.2167,90.4546,66.1004,294.0146,6.3047e-05,7.16e-06,0.0,0 STARLINK-3153,1 49431U 21104Z   22277.49214916  .00000716  00000-0  63047-4 0  9993,2 49431  53.2167  90.4546 0001505  66.1004 294.0146 15.08839663 50676,6917.880999999999,95.438,540.788,538.705,0.0
49431.0,STARLINK-3153,PAYLOAD,2022-10-05 11:39:28,15.08836318,0.0001372,53.2149,85.9915,73.0502,287.064,4.9865e-05,5.06e-06,0.0,0 STARLINK-3153,1 49431U 21104Z   22278.48575031  .00000506  00000-0  49865-4 0  9990,2 49431  53.2149  85.9915 0001372  73.0502 287.0640 15.08836318 49748,6917.892,95.438,540.706,538.808,0.0
